IRIDIUM 57 [-]          
1 25273U 98019B   23257.88734762  .00000545  00000+0  18506-3 0  9996
2 25273  86.3942  53.7822 0002090  91.5399 268.6037 14.34893755332792
IRIDIUM 63 [-]          
1 25286U 98021B   23257.31424659  .00000617  00000+0  20812-3 0  9995
2 25286  86.4048 350.9846 0002123  98.7227 261.4210 14.35403153331735
IRIDIUM 69 [-]          
1 25319U 98026A   23257.35430473  .00000940  00000+0  29520-3 0  9996
2 25319  86.4046   6.1409 0002353  33.7458 326.3890 14.39555439330682
IRIDIUM 71 [-]          
1 25320U 98026B   23257.34731374  .00000800  00000+0  24841-3 0  9997
2 25320  86.4040   0.9868 0003872  68.5506 291.6106 14.39898385331197
IRIDIUM 73 [-]          
1 25344U 98032C   23258.17740293  .00000757  00000+0  19035-3 0  9992
2 25344  86.4432 318.5416 0002232  75.3330 284.8122 14.50016910337923
IRIDIUM 82 [-]          
1 25467U 98051A   23257.93299281  .00016342  00000+0  97817-3 0  9999
2 25467  86.3933  55.5351 0149905 148.8964 212.1254 15.01852417326912
IRIDIUM 2 [-]           
1 25527U 98066A   23258.12038399  .00029749  00000+0  75529-3 0  9996
2 25527  85.5180 116.9311 0004253 336.3130  23.7926 15.39508863364498
